{"fetched_at":"2026-03-29T02:12:04Z","count":15717,"tles":[{"name":"RCM-2","line1":"1 44324U 19033C   26087.53131808 -.00000253  00000+0 -19206-4 0  9998","line2":"2 44324  97.7599  96.1620 0001505  88.9179 271.2213 14.92590801370054","category":"Other"}]}